{"type":"Feature","properties":{},"geometry":{"type":"MultiPolygon","coordinates":[[[[-70.01655532568704,7.0371915899242286],[-70.22972338315678,7.0298490284114985],[-70.3448144481771,7.070167687881424],[-70.4531354505492,7.137357847183845],[-70.64269720470031,7.149115142189645],[-70.80679255753772,7.138937381154068],[-71.01703972836069,7.077866205794919],[-71.18113508119812,7.098224140153737],[-71.30933457560234,7.103313487104868],[-71.44779002955894,7.113492016774776],[-71.6529092206057,7.103313487104868],[-71.88366831053334,7.103313487104868],[-71.99135588583289,7.169470003075832],[-72.08365952180394,7.322103126990095],[-72.08878750158011,7.44417315160398],[-72.16057921844649,7.500110919398912],[-72.24262689486521,7.495025955472059],[-72.31441861173157,7.495025955472059],[-72.39133830837412,7.601798032813681],[-72.40672224770263,7.749202740941543],[-72.40672224770263,7.820345769462065],[-72.37595436904562,7.9676759008084],[-72.4118502274788,8.048939531111895],[-72.32980255106008,8.145419543279274],[-72.28365073307454,8.211419203525876],[-72.3092906319554,8.297710382627656],[-72.3092906319554,8.449943979518018],[-72.39133830837412,8.569152992888084],[-72.51953780277836,8.670578953272233],[-72.60158547919708,8.807461844711728],[-72.6990170949443,8.994962205233707],[-72.77080881181065,9.21781296982872],[-72.81183265002002,9.26337940174566],[-72.9143922455434,9.202622891280718],[-72.9143922455434,9.32918746424609],[-72.9708000230813,9.389922693049307],[-73.05284769949998,9.38486181702698],[-73.18617517368038,9.298816002170176],[-73.355398506294,9.288691613424131],[-73.25796689054678,9.425346817700287],[-73.24771093099443,9.50630299895317],[-73.12463941636635,9.622644967442955],[-73.04771971972382,9.74905962278609],[-72.94003214442426,9.984067032375053],[-72.97592800285744,10.039636302862949],[-72.9143922455434,10.241628143338039],[-72.8682404275579,10.498986877973476],[-72.8682404275579,10.589770149681147],[-72.77593679158684,10.720855545474068],[-72.65286527695875,11.04329194474392],[-72.59132951964475,11.083572620542258],[-72.52466578255454,11.123847929499119],[-72.41697820725497,11.279863719841288],[-72.29390669262689,11.305019911809334],[-72.20673103643202,11.310050894036491],[-71.95033204762353,11.805178102477768],[-71.91443618919035,11.815222618760307],[-71.6170133621725,11.915648142133222],[-71.29907861605001,12.00600042103808],[-71.28369467672148,12.126424526906082],[-71.08883144522704,12.15150628270966],[-71.02729568791302,12.256824645624988],[-71.10934336433175,12.362102361948567],[-71.18113508119812,12.48236956276922],[-71.36574235314022,12.57754282355753],[-71.54522164530616,12.61259807735072],[-71.64265326105335,12.587559082961572],[-71.73495689702443,12.537474012093197],[-71.79136467456227,12.527455867165594],[-71.86315639142867,12.527455867165594],[-71.88879629030951,12.427253769625757],[-71.86315639142867,12.372126679358654],[-71.88366831053334,12.347065189110733],[-71.97597194650439,12.32200137879734],[-71.98622790605671,12.422242682086337],[-72.07340356225161,12.422242682086337],[-72.11955538023713,12.372126679358654],[-72.11955538023713,12.256824645624988],[-72.14519527911798,12.211693162488013],[-72.18677582334095,12.06072107811706],[-72.43427152178845,11.956911725309553],[-72.74514052259903,11.86523388110658],[-73.0968281082714,11.57438330899906],[-73.3114945566688,11.437050678840308],[-73.7756776727466,11.416086647623526],[-73.99555388562557,11.490951288983574],[-74.0902228106151,11.496939631089848],[-74.2001609170546,11.434055909077145],[-74.2001609170546,11.24532398752923],[-74.18794557189464,11.200370107623945],[-74.25512997027434,11.116438136898498],[-74.31009902349408,11.03848036763111],[-74.33147587752396,10.927505969230793],[-74.39255260332367,10.900506107745754],[-74.46584467428332,10.924506101895481],[-74.47195234686329,11.014489326433985],[-74.47195234686329,11.07746176396749],[-74.47500618315327,11.131427708438974],[-74.58799812588272,11.17938931604649],[-74.78955132102179,11.218352471976662],[-74.89643559117127,11.140421093092053],[-74.99721218874079,11.092453272030776],[-75.05828891454051,11.020487264273317],[-75.1834962024299,10.957503027411533],[-75.28427279999943,10.851000206896327],[-75.28732663628942,10.835996850399988],[-75.47361064997853,10.73995817552258],[-75.52247203061829,10.676916715010156],[-75.51331052174832,10.601850856854591],[-75.54384888464818,10.544788878894618],[-75.52247203061829,10.493724742254848],[-75.53774121206823,10.419366787092398],[-75.62324862818782,10.383308253128389],[-75.70570220801741,10.275108549437535],[-75.65073315479768,10.290138439427766],[-75.59576410157791,10.332218441743496],[-75.54995655722817,10.335223947746536],[-75.54995655722817,10.266090283219304],[-75.59271026528793,10.202955461743583],[-75.60492561044788,10.14582303022927],[-75.60797944673786,10.043561440982781],[-75.68127151769752,9.866785806368547],[-75.72707906204731,9.82464692768342],[-75.62324862818778,9.770460733625187],[-75.61103328302785,9.698199185286647],[-75.62019479189782,9.57471752409154],[-75.67516384511757,9.532543064143965],[-75.7637250975271,9.52953040919258],[-75.82480182332684,9.541580874348114],[-75.98665514669607,9.541580874348114],[-76.00803200072596,9.49940244405222],[-76.10880859829548,9.472285079209145],[-76.15766997893525,9.37886497726538],[-76.21874670473497,9.342695798354978],[-76.23401588618486,9.264316774390252],[-76.26760808537473,9.219090387167954],[-76.30730795714453,9.131636805089023],[-76.33479248375438,9.041145697289835],[-76.51496882486356,8.918947769361706],[-76.62490693130306,8.807275477046437],[-76.77759874580231,8.728783467686204],[-76.94861357804149,8.710667648434633],[-77.00052879497125,8.653295282022716],[-76.93945206917155,8.604975131925649],[-76.85699848934193,8.547587189035916],[-76.7989755998322,8.48716977709451],[-76.80202943612218,8.330041509637452],[-76.78676025467227,8.139592657226352],[-76.78981409096225,8.015602422132032],[-76.84478314418199,7.994429677262145],[-76.89669836111175,7.994429677262145],[-76.95472125062147,8.030725156979768],[-76.94555974175151,8.118426212518226],[-76.87532150708184,8.130521456474899],[-76.87532150708184,8.181922289010757],[-76.91502137885162,8.203085470647078],[-76.94250590546153,8.203085470647078],[-76.9883134498113,8.200062225847624],[-76.9883134498113,8.239362665890457],[-76.97609810465137,8.284704621561511],[-77.02495948529112,8.290749833349288],[-77.0280133215811,8.348174839956608],[-77.06160552077095,8.351196982311627],[-77.08909004738084,8.369329359532717],[-77.15932828205048,8.478106368449833],[-77.20818966269026,8.541545864586155],[-77.32118160541974,8.589873857090959],[-77.32423544170972,8.635175928592783],[-77.36698914976951,8.68651189944288],[-77.40363518524933,8.755955597412205],[-77.44028122072913,8.755955597412205],[-77.48608876507893,8.725764223639821],[-77.48914260136893,8.67443345894265],[-77.53189630942872,8.60270997790671],[-77.50441178281885,8.57250667033383],[-77.44028122072913,8.475840483896146],[-77.40668902153931,8.382172631433775],[-77.34255845944959,8.29755058884524],[-77.28148173364991,8.209887689867358],[-77.28148173364991,8.137324875712658],[-77.27537406106993,8.074577994518242],[-77.23567418930014,8.029212908067183],[-77.22651268043018,8.014090118632785],[-77.25094337075006,7.9929172975083755],[-77.32118160541974,7.9929172975083755],[-77.35477380460956,7.977793200972894],[-77.37920449492945,7.941493155997083],[-77.40974285782929,7.887037254866243],[-77.43722738443915,7.826522538085003],[-77.4921964376589,7.747840666599435],[-77.54716549087864,7.678982316659506],[-77.59297303522843,7.630547971904992],[-77.63572674328823,7.5942187165473545],[-77.69374963279795,7.639629818202095],[-77.69680346908793,7.678982316659506],[-77.74261101343771,7.730437936001892],[-77.78536472149752,7.757676683914342],[-77.81895692068734,7.757676683914342],[-77.82506459326733,7.7031974816790925],[-77.80979541181739,7.651738654975446],[-77.81590308439736,7.576052969784248],[-77.82201075697732,7.560914279260905],[-77.86476446503711,7.545775073238016],[-77.90446433680691,7.545775073238016],[-77.92584119083685,7.424642986916462],[-77.96248722631667,7.288330667540971],[-77.95943339002667,7.264093126562825],[-77.88308748277703,7.17925176273255],[-77.79758006665746,7.106518349485222],[-77.76704170375757,7.042867433653342],[-77.78231088520751,6.991334280476835],[-77.79758006665746,6.964049784098037],[-77.77620321262756,6.900379971303638],[-77.76398786746759,6.882187064287338],[-77.74871868601767,6.915540208229734],[-77.7212341594078,6.915540208229734],[-77.66931894247807,6.89128360261326],[-77.6418344158682,6.867025790699586],[-77.62045756183826,6.79879426277156],[-77.59908070780838,6.71690400594761],[-77.58075769006848,6.71690400594761],[-77.58075769006848,6.744202255270883],[-77.52884247313874,6.765433193624384],[-77.47692725620897,6.726003588147307],[-77.45555040217909,6.683537457195154],[-77.42501203927922,6.610730044515849],[-77.41890436669925,6.57128833505843],[-77.41890436669925,6.534877903109935],[-77.4494427295991,6.440805723394154],[-77.45860423846908,6.407421182709815],[-77.46165807475907,6.337610288975853],[-77.467765747339,6.304219214858903],[-77.53800398200868,6.325468322904722],[-77.54716549087864,6.301183558782169],[-77.54716549087864,6.2009972631782775],[-77.48608876507893,6.122049543494807],[-77.41890436669925,6.049164641408422],[-77.38225833121945,5.985382501668193],[-77.34561229573961,5.936781716573837],[-77.34255845944959,5.876024868849491],[-77.31507393283974,5.810704057193158],[-77.31812776912975,5.756011185646813],[-77.38225833121945,5.677001332972254],[-77.43417354814919,5.652688479301037],[-77.51357329168881,5.652688479301037],[-77.56243467232858,5.62533532984754],[-77.63267290699824,5.537188908178796],[-77.63267290699824,5.49767082353647],[-77.56854234490854,5.488550901751597],[-77.48914260136893,5.473350730092347],[-77.467765747339,5.4155866515125926],[-77.43722738443915,5.303083312296146],[-77.43722738443915,5.187518528721447],[-77.4066890215393,4.948721138640793],[-77.4005813489593,4.872653157604667],[-77.38836600379939,4.790490298774373],[-77.35782764089952,4.720492101458072],[-77.39447367637936,4.653530846851377],[-77.4005813489593,4.543944497176923],[-77.4494427295991,4.416834402360165],[-77.46165807475907,4.37116087106947],[-77.5166271279788,4.316349042223253],[-77.57770385377849,4.276760310265872],[-77.57770385377849,4.237169576455168],[-77.50746561910883,4.2463060763758165],[-77.4311197118592,4.261533340872968],[-77.40363518524933,4.237169576455168],[-77.35477380460956,4.224987412262144],[-77.36698914976951,4.185394087907604],[-77.4921964376589,4.154936349782402],[-77.51051945539884,4.094017426894025],[-77.48303492878892,4.033855534414524],[-77.47081958362898,3.969881141207174],[-77.40668902153931,3.966834619750549],[-77.37004298605949,4.06127162543906],[-77.30591242396977,4.076502393295338],[-77.26315871591,4.030809246023766],[-77.29369707880983,3.979020639448089],[-77.35782764089954,3.966834619750549],[-77.36698914976951,3.89066802723842],[-77.33645078686962,3.8358238929181345],[-77.26010487962,3.8358238929181345],[-77.16848979092043,3.887621222258246],[-77.11046690141073,3.899808377335546],[-77.12878991915063,3.85715258017476],[-77.18681280866033,3.814494683647894],[-77.19292048124031,3.768787490563396],[-77.2417818618801,3.716983158205708],[-77.2417818618801,3.686508624151848],[-77.19292048124031,3.6621282585743433],[-77.22956651672015,3.640794903935795],[-77.26926638848997,3.622508776392774],[-77.29064324251985,3.5653622980585844],[-77.3028585876798,3.556218536438057],[-77.33645078686962,3.498305987068356],[-77.32728927799967,3.464776058393378],[-77.35782764089952,3.464776058393378],[-77.38531216750937,3.425148274755501],[-77.40974285782927,3.3855188786880555],[-77.40974285782927,3.3245474703352658],[-77.47387341991896,3.351985066827207],[-77.51051945539879,3.3062553218983655],[-77.53189630942867,3.2757676712296],[-77.58991919893839,3.2513768925113324],[-77.60213454409836,3.1690537536309424],[-77.6540497610281,3.129414376662231],[-77.72961583512014,3.0089790203424926],[-77.75462986957656,2.974916007577515],[-77.75008186331175,2.9453938898714496],[-77.73643784451737,2.931768036223599],[-77.73643784451737,2.8999737422689456],[-77.76372588210616,2.8749918920686426],[-77.76372588210616,2.8341113382067578],[-77.80693194162168,2.804585605820333],[-77.82739796981329,2.72338606816338],[-77.84558999487246,2.6915861646688595],[-77.84558999487246,2.6393416892422916],[-77.85241200426968,2.600724808567805],[-77.90698807944722,2.571193462281009],[-77.97066016715436,2.600724808567805],[-78.03205825172908,2.618897605094228],[-78.0616331041466,2.608892207759199],[-78.12719619012564,2.574721053656825],[-78.12719619012564,2.4835935717037367],[-78.19560984506032,2.4522670494559664],[-78.30108089641791,2.5519397794428915],[-78.33813829284087,2.5348535612119028],[-78.36664398239697,2.591806744857515],[-78.41510365464235,2.6117397626114087],[-78.49206901644385,2.554787460655625],[-78.52057470599995,2.5035282485142063],[-78.57473551615657,2.4579628351357226],[-78.6117929125795,2.378219667283687],[-78.64885030900246,2.33834635847474],[-78.67165486064734,2.289927258257019],[-78.70016055020345,2.2194318469614776],[-78.73151680871516,2.2194318469614776],[-78.76002249827127,2.171008812949525],[-78.76287306722686,2.1054928442950764],[-78.75147079140443,2.000091865999707],[-78.72296510184832,1.9659062964384746],[-78.66595372273612,1.9659062964384746],[-78.62034461944631,1.9545109505706504],[-78.6431491710912,1.9174755449862722],[-78.65170087795805,1.8526616655992254],[-78.59468949884585,1.824171292194729],[-78.59468949884585,1.7643400445415849],[-78.65170087795805,1.7443958630960283],[-78.71156282602588,1.7529433955545155],[-78.81418330842789,1.7643400445415849],[-78.92535549769669,1.7557925643459664],[-78.95386118725281,1.6931098560732099],[-79.05933223861038,1.6218770364955093],[-79.09924020398897,1.6019313899185152],[-79.05078053174357,1.5363943288116397],[-79.01657370427624,1.5135983492425926],[-78.95101061829718,1.490802127535701],[-78.91110265291863,1.453757759759827],[-78.90825208396303,1.385366552024633],[-78.86264298067324,1.3369215620320256],[-78.82558558425032,1.3055742837178004],[-78.7714247740937,1.2656771732689895],[-78.73151680871516,1.2143799710450702],[-78.6973099812478,1.1858810927011527],[-78.66595372273612,1.1687816210377426],[-78.63459746422438,1.160231845100431],[-78.62034461944631,1.1345823590608148],[-78.586137791979,1.1317324016636028],[-78.52342527495558,1.1039451673587002],[-78.47211503375456,1.064045083320829],[-78.40085080986428,0.9842433373945112],[-78.36094284448575,0.9471918447601992],[-78.29823032746232,0.927240869479792],[-78.27257520686182,0.8987392736664268],[-78.22696610357205,0.8901887493347633],[-78.1642535865486,0.8588366509473704],[-78.1072422074364,0.8217838243072797],[-78.01032286294561,0.810382881153779],[-77.96186319070023,0.7790301145537968],[-77.9276563632329,0.7476771014343075],[-77.87064498412069,0.7391262380762496],[-77.76517393276306,0.7626410696941237],[-77.74807051902941,0.7540902373701197],[-77.71101312260647,0.725587335412186],[-77.68250743305036,0.6600299471146283],[-77.67110515722793,0.6115738851136174],[-77.57418581273716,0.5944716307713036],[-77.49436988198005,0.5346132970329509],[-77.47726646824638,0.4719038788129648],[-77.47726646824638,0.3949414630669721],[-77.46016305451273,0.33793173059660164],[-77.42595622704539,0.2980246794524932],[-77.36894484793318,0.2780710870638652],[-77.29483005508729,0.2495658837654391],[-77.26632436553118,0.24101430729704854],[-77.22641640015264,0.24671535904490094],[-77.18080729686287,0.25526693086584906],[-77.14374990043993,0.25811745323215485],[-77.10669250401698,0.24101430729704854],[-77.05538226281598,0.20965846996857085],[-76.98411803892571,0.19255525056050304],[-76.9328077977247,0.1505097409116556],[-76.91285381503545,0.1505097409116556],[-76.83873902218956,0.14480864529113324],[-76.79598048785539,0.11915368960918782],[-76.75892309143242,0.11915368960918782],[-76.72756683292074,0.1761646435764077],[-76.70191171232024,0.1761646435764077],[-76.66200374694169,0.16761301454077193],[-76.55653269558405,0.1533602879118212],[-76.48526847169381,0.15621083436292205],[-76.44536050631525,0.16191192559071066],[-76.44536050631525,0.2075205688572268],[-76.43680879944843,0.23887641210738497],[-76.41400424780353,0.2987373069563981],[-76.35699286869132,0.30158781641167876],[-76.33988945495766,0.3386443548050604],[-76.31423433435715,0.3386443548050604],[-76.22301612777758,0.30443832496523004],[-76.15745304179856,0.30158781641167876],[-76.1432001970205,0.24172693893236952],[-76.09474052477512,0.24172693893236952],[-76.04628085252973,0.2360258845298615],[-76.01492459401798,0.1961184232261024],[-75.98071776655068,0.1134525830276698],[-75.90375240474918,0.05074030267176699],[-75.86099387041502,0.03078636089174669],[-75.80398249130282,-0.011972125279377188],[-75.74126997427938,-0.03477666702204463],[-75.5930403885876,-0.049029509130214866],[-75.52747730260855,-0.09463861105292448],[-75.4391096649846,-0.17160393235551785],[-75.37312605600265,-0.1749268981277372],[-75.27447760187279,-0.19873855207026336],[-75.19623917273535,-0.16812356528436778],[-75.13500909775817,-0.1817302296499279],[-75.08398403527723,-0.21234520267831547],[-74.98533558114738,-0.28718163052661216],[-74.90369548117786,-0.3688209735048127],[-74.82545705204039,-0.3007882204160963],[-74.76082530623118,-0.3484111848450824],[-74.77103031872738,-0.45045974786637943],[-74.6655785229334,-0.4810741091409061],[-74.57713508129974,-0.5389009269919884],[-74.4580766021775,-0.6137349535268721],[-74.34922313555145,-0.7634002458364839],[-74.32541143972703,-0.8450340262744231],[-74.3288131105591,-0.9028570572505621],[-74.29479640223845,-0.9300676192005004],[-74.270984706414,-0.9606792801475881],[-74.29479640223845,-1.0253030916344064],[-74.25397635225369,-1.0661175382628536],[-74.23016465642921,-1.1239371740660373],[-74.20635296060479,-1.1545471583486582],[-74.0192610648413,-1.159648793891415],[-73.95462931903208,-1.2378728161645713],[-73.87979256072667,-1.2684816579322464],[-73.82196415658159,-1.333099240607862],[-73.73352071494794,-1.373909559425305],[-73.63147058998602,-1.3977152880122419],[-73.52601879419204,-1.4895352963366606],[-73.52601879419204,-1.550746712380596],[-73.45798537755078,-1.6017549937204545],[-73.4375753525584,-1.7539226460989235],[-73.44097702339047,-1.8049260703143788],[-73.42056699839809,-1.879728700926861],[-73.35933692342091,-1.927328844917771],[-73.14162999016884,-1.9341287660127162],[-73.06339156103137,-2.0055264018165073],[-73.11101495268025,-2.09051982514084],[-73.03617819437486,-2.2095034219834653],[-73.06679323186344,-2.2774901110156587],[-73.1280233068406,-2.3556711153511256],[-73.1280233068406,-2.4202523527967137],[-73.02937485271075,-2.4882295089871724],[-72.91711971525265,-2.5086220236651013],[-72.88650467776408,-2.559602009143132],[-72.82867627361898,-2.5867905644515194],[-72.77424954030595,-2.559602009143132],[-72.75043784448151,-2.5392102395666822],[-72.70621612366467,-2.5392102395666822],[-72.61777268203103,-2.5630006080749808],[-72.56674761955007,-2.512020747382914],[-72.48850919041261,-2.5256155597519414],[-72.44428746959579,-2.573196354359483],[-72.34223734463386,-2.573196354359483],[-72.30141729464911,-2.6139785763258803],[-72.24699056133609,-2.6105801047613846],[-72.19596549885513,-2.5663991985959504],[-72.03608696974815,-2.5630006080749808],[-71.99526691976337,-2.518818170090818],[-71.93403684478622,-2.5086220236651013],[-71.86940509897698,-2.535811582080124],[-71.7571499615189,-2.406656538034239],[-71.6925182157097,-2.342074708027113],[-71.64829649489289,-2.3590701979339284],[-71.6176814574043,-2.386262579631293],[-71.59727143241192,-2.362469272794496],[-71.5530497115951,-2.362469272794496],[-71.45099958663316,-2.410055503577991],[-71.35915447416745,-2.450842471053885],[-71.33194110751094,-2.5562034018119175],[-71.30812941168651,-2.5562034018119175],[-71.25370267837347,-2.5460075295367095],[-71.17886592006808,-2.535811582080124],[-71.12443918675505,-2.5460075295367095],[-71.09382414926648,-2.4746343358805016],[-70.95435564515188,-2.433848040697154],[-70.93394562015949,-2.4202523527967137],[-70.89652724100681,-2.4202523527967137],[-70.84210050769377,-2.433848040697154],[-70.78087043271663,-2.4576401870516764],[-70.71283701607535,-2.4950270466358897],[-70.63119691610582,-2.49842580319395],[-70.60398354944931,-2.559602009143132],[-70.56656517029663,-2.5935876185964806],[-70.56656517029663,-2.644564432798233],[-70.52234344947978,-2.6479628180173154],[-70.4895608658737,-2.624995907960526],[-70.45120906531803,-2.624995907960526],[-70.40646529800307,-2.6377676363130944],[-70.34254563041026,-2.6824677180022483],[-70.25945006253963,-2.714395415656426],[-70.23388219550253,-2.7590928671616495],[-70.17635449466901,-2.771863280423053],[-70.14439466087262,-2.816558708969525],[-70.10604286031695,-2.8548678012473023],[-70.04851515948342,-2.8548678012473023],[-70.00377139216846,-2.8804065336105986],[-70.01655532568704,-2.969787846570878],[-70.06769105976127,-3.052778722120052],[-70.13161072735406,-3.1229970872355133],[-70.15078662763189,-3.2123595381047703],[-70.2083143284654,-3.301714652752407],[-70.38089743096594,-3.550592036992454],[-70.4576010320773,-3.671817433000037],[-70.69410380217063,-3.958867507241673],[-70.52152069967009,-3.958867507241673],[-70.47038496559585,-3.9907562991074577],[-70.4256411982809,-4.035398645318773],[-70.34893759716954,-4.009889014750685],[-70.28501792957677,-3.952489609679993],[-70.15717859439116,-4.016266492932074],[-70.0932589267984,-4.1119229862219875],[-70.08047499327981,-4.201192618851948],[-70.00377139216846,-4.2585751640729494],[-69.92067582429785,-4.315953671726453],[-69.86314812346433,-4.386077395487879],[-69.8439722231865,-4.277701784626911],[-69.82479632290867,-4.0545303728818105],[-69.78644452235297,-3.8950864608132565],[-69.73530878827873,-3.608016490072321],[-69.6586051871674,-3.2889500934250733],[-69.41571045031476,-1.9830726673060108],[-69.35179078272198,-1.6827860863551236],[-69.30065504864776,-1.5549912422032741],[-69.30065504864776,-1.465530610035445],[-69.28787111512916,-1.3760667244901321],[-69.30704701540702,-1.337724115250142],[-69.31983094892558,-1.273818568939037],[-69.33900684920341,-1.2163023517688178],[-69.4093184835555,-1.1076576431679341],[-69.44767028411117,-1.0437473035812395],[-69.47963011790756,-0.986227007616606],[-69.51158995170394,-0.9414883880890588],[-69.47963011790756,-0.8647924481162881],[-69.47963011790756,-0.7305713694083669],[-69.54994175225964,-0.66026367024334],[-69.6586051871674,-0.5899551275121868],[-69.72891682151946,-0.557996447654022],[-69.83118828966792,-0.48768685955787516],[-69.94624369133496,-0.40459295237635073],[-69.9590276248535,-0.24159929284925008],[-69.92067582429785,-0.13932802901788266],[-69.92706779105713,-0.0434485411134653],[-69.9654195916128,0.033254995730019665],[-69.9654195916128,0.08439058918280296],[-69.94624369133496,0.4806842511010361],[-69.76726862207515,0.4934675882000654],[-69.68417305420452,0.5190341798380982],[-69.6522132204081,0.5382090489186551],[-69.61386141985243,0.5765585861838791],[-69.54354978550037,0.5893417035052915],[-69.49241405142611,0.5829501487942093],[-69.44127831735189,0.6468653278271548],[-69.35179078272198,0.6404738476488965],[-69.31343898216629,0.6085163194787522],[-69.19838358049927,0.6085163194787522],[-69.17920768022144,0.5318174331540289],[-69.08972014559154,0.5382090489186551],[-69.0066245777209,0.5829501487942093],[-69.04497637827656,0.6340823588834659],[-69.08972014559154,0.6468653278271548],[-69.07693621207298,0.7171710211744231],[-69.07693621207298,0.8513877021415484],[-69.13446391290648,0.9536447798691698],[-69.19199161373999,1.0367263453837294],[-69.30065504864776,1.0239447084468867],[-69.46045421762972,1.0239447084468867],[-69.52437388522253,1.0367263453837294],[-69.60107748633388,1.043117143902883],[-69.67138912068594,1.0686802032015703],[-69.75448468855656,1.0047721544411057],[-69.7161328880009,1.6885056508219973],[-69.67778108744523,1.6948946890543102],[-69.54354978550037,1.707672701876858],[-69.42210241707406,1.7268395608612148],[-69.30065504864776,1.7204506293347221],[-68.04143759706972,1.7204506293347221],[-68.0797893976254,1.829059479894123],[-68.10535726466253,1.8929439863731243],[-68.10535726466253,1.9632142202056773],[-68.06700546410684,2.001542201171751],[-67.97751792947693,1.982378321479711],[-67.89442236160629,1.8737788782654945],[-67.89442236160629,1.77795023014491],[-67.83689466077278,1.7587838934177191],[-67.66431155827223,1.7587838934177191],[-67.53008025632738,1.899332308738198],[-67.42141682141964,2.07819546296053],[-67.40863288790108,2.0909706494600213],[-67.30636141975259,2.122908160847644],[-67.22326585188198,2.103745732296039],[-67.13377831725205,2.0718078310274963],[-67.10181848345565,1.9057206074741013],[-67.00593898206648,1.8226709026409864],[-66.94841128123298,1.6310033658327376],[-66.94841128123298,1.3690284100706367],[-66.96119521475153,1.1581491515875841],[-66.73108441141748,1.1901016564478355],[-66.73108441141748,1.3370781503116946],[-66.76943621197314,1.3754184104388139],[-66.7822201454917,1.5319678058696922],[-66.8141799792881,1.698089200229513],[-66.92284341419585,1.9153030111065403],[-66.99315504854792,1.9855723168715993],[-66.94201931447368,2.0558386389798966],[-66.97397914827009,2.145264028220072],[-67.02511488234431,2.189974783489307],[-67.06985864965928,2.3113257796302786],[-67.05068274938144,2.3815769432757223],[-67.06985864965928,2.426280384602582],[-67.15934618428918,2.4709823601346717],[-67.31275338651189,2.6497750822844024],[-67.4342007549382,2.7519309920754447],[-67.50451238929026,2.866846034266991],[-67.73462319262433,2.866846034266991],[-67.67709549179081,2.9370663134028834],[-67.4917284557717,3.071111029828908],[-67.38945698762325,3.1796113098820427],[-67.21687388512271,3.3551025154877787],[-67.15934618428918,3.3806259654953354],[-67.14656225077063,3.476332982346715],[-67.22965781864127,3.5401323751109812],[-67.30636141975259,3.610306718697453],[-67.39584895438253,3.7506393339445387],[-67.45337665521603,3.776152004047645],[-67.50451238929026,3.8399304511532586],[-67.55564812336449,3.9228354362392652],[-67.55564812336449,4.031237457282904],[-67.60039189067945,4.165126249710122],[-67.65152762475367,4.260747487313687],[-67.65152762475367,4.394597618384284],[-67.70266335882793,4.547540380451257],[-67.72183925910576,4.623999925859879],[-67.6834874585501,4.725933420218616],[-67.65152762475367,4.910650341933304],[-67.63874369123515,5.07621621312628],[-67.67070352503151,5.260836867071254],[-67.7154472923465,5.37858432469151],[-67.61317582419802,5.4358588709172615],[-67.498120422531,5.575840850015998],[-67.498120422531,5.639458317116631],[-67.54925615660521,5.709429679469832],[-67.45337665521603,5.906576605154621],[-67.31275338651189,6.027374968248847],[-67.31914535327117,6.097298933092517],[-67.33832125354903,6.167214026580593],[-67.35110518706755,6.275246946230846],[-67.60039189067945,6.313371028379626],[-67.70266335882793,6.313371028379626],[-67.79215089345783,6.294309327593735],[-67.84328662753207,6.256183886294792],[-67.96473399595837,6.281601148847789],[-68.08618136438469,6.281601148847789],[-68.207628732811,6.2244106172380995],[-68.29072430068162,6.256183886294792],[-68.37381986855226,6.2244106172380995],[-68.46969936994145,6.2244106172380995],[-68.56557887133063,6.230765420952633],[-68.64867443920126,6.249829382535148],[-68.77012180762758,6.262538314880107],[-68.917137043091,6.275246946230846],[-68.98105671068379,6.275246946230846],[-69.07054424531368,6.167214026580593],[-69.16642374670288,6.135435544705182],[-69.18559964698072,6.167214026580593],[-69.19199161373999,6.205345757573017],[-69.24951931457352,6.205345757573017],[-69.30704701540702,6.179924900908831],[-69.36457471624054,6.211700785474033],[-69.40292651679623,6.268892668216863],[-69.54994175225964,6.453135848333218],[-69.6586051871674,6.61191394826996],[-69.8056204226308,6.7896865067151495],[-69.90149992402,6.922974137035295],[-70.01655532568704,7.0371915899242286]]],[[[-81.85,12.40],[-81.25,12.40],[-81.25,13.45],[-81.85,13.45],[-81.85,12.40]]]]}}
